OBJECT_NAME,OBJECT_ID,EPOCH,MEAN_MOTION,ECCENTRICITY,INCLINATION,RA_OF_ASC_NODE,ARG_OF_PERICENTER,MEAN_ANOMALY,EPHEMERIS_TYPE,CLASSIFICATION_TYPE,NORAD_CAT_ID,ELEMENT_SET_NO,REV_AT_EPOCH,BSTAR,MEAN_MOTION_DOT,MEAN_MOTION_DDOT
GPS BIIR-5  (PRN 22),2000-040A,2026-06-28T06:30:42.594912,2.00557860,.0120881,54.8502,214.7219,302.5644,64.3517,0,U,26407,999,19017,0,.79E-6,0
GPS BIIR-8  (PRN 16),2003-005A,2026-06-28T14:39:56.332224,2.00560056,.01480478,54.8808,214.5148,53.1107,335.2091,0,U,27663,999,17154,0,.78E-6,0
GPS BIIR-11 (PRN 19),2004-009A,2026-06-28T08:45:51.984864,2.00554511,.01165462,54.8202,275.2354,173.5786,190.0980,0,U,28190,999,16317,0,-.34E-6,0
GPS BIIR-13 (PRN 02),2004-045A,2026-06-27T12:42:59.516928,2.00556517,.01699257,55.1297,324.4797,316.6549,228.8680,0,U,28474,999,15863,0,-.102E-5,0
GPS BIIRM-1 (PRN 17),2005-038A,2026-06-28T06:55:32.678688,2.00565060,.01280259,54.8689,272.7293,296.2501,41.1852,0,U,28874,999,15205,0,-.29E-6,0
INMARSAT 4-F2 (SOUTHPAN/PRN 122),2005-044A,2026-06-27T23:27:16.430400,1.00274774,.0003504,5.1083,43.6802,44.6908,323.0231,0,U,28899,999,7563,0,-.253E-5,0
GPS BIIRM-2 (PRN 31),2006-042A,2026-06-28T14:46:44.930784,2.00569276,.0106837,54.7120,150.8852,54.7247,57.6465,0,U,29486,999,14462,0,.29E-6,0
GPS BIIRM-3 (PRN 12),2006-052A,2026-06-27T21:19:55.194528,2.00558714,.00848267,54.9335,213.5820,90.7543,270.2993,0,U,29601,999,14362,0,.81E-6,0
GPS BIIRM-4 (PRN 15),2007-047A,2026-06-27T04:43:25.383648,2.00554886,.01671439,54.1023,79.6530,87.5980,274.3314,0,U,32260,999,13701,0,-.7E-6,0
COSMOS 2433 (720),2007-052A,2026-06-26T07:13:06.780288,2.13104185,.0002876,65.5713,315.6262,196.1254,163.8539,0,U,32275,999,14525,0,-.84E-6,0
COSMOS 2432 (719),2007-052B,2026-06-27T23:26:54.039840,2.13103239,.000748,65.5863,315.6977,328.0830,181.6997,0,U,32276,999,14531,0,-.78E-6,0
GPS BIIRM-5 (PRN 29),2007-062A,2026-06-28T14:13:55.333056,2.00560879,.00358739,55.0224,273.6939,166.4039,249.2259,0,U,32384,999,13574,0,-.28E-6,0
COSMOS 2434 (721),2007-065A,2026-06-27T04:34:21.639072,2.13101370,.00012437,64.3185,191.5785,326.9302,245.4349,0,U,32393,999,14398,0,.101E-5,0
COSMOS 2436 (723),2007-065C,2026-06-27T20:09:37.709856,2.13100206,.00172824,64.3274,191.6289,353.5963,129.3057,0,U,32395,999,14395,0,.96E-6,0
GPS BIIRM-6 (PRN 07),2008-012A,2026-06-28T02:30:14.449824,2.00572774,.02114421,54.4987,149.4887,247.9696,109.7406,0,U,32711,999,13397,0,.28E-6,0
GPS BIIRM-8 (PRN 05),2009-043A,2026-06-28T08:09:01.459008,2.00553874,.0053812,56.2173,27.0139,83.6857,95.1411,0,U,35752,999,12358,0,-.75E-6,0
COSMOS 2456 (730),2009-070A,2026-06-25T18:48:35.935200,2.13103651,.00042491,65.0164,70.6784,334.9853,36.3390,0,U,36111,999,12861,0,-.65E-6,0
COSMOS 2457 (733),2009-070B,2026-06-27T15:17:52.260288,2.13101175,.00032322,65.0032,70.4590,122.1051,358.6068,0,U,36112,999,12865,0,-.48E-6,0
COSMOS 2460 (732),2010-007C,2026-06-27T05:30:11.897568,2.13101740,.00020317,65.4142,314.1261,121.7117,47.8769,0,U,36402,999,12694,0,-.82E-6,0
GPS BIIF-1  (PRN 25),2010-022A,2026-06-28T14:20:23.733024,2.00563064,.01264523,54.2696,208.1023,66.1262,58.0234,0,U,36585,999,11782,0,.8E-6,0
BEIDOU-2 IGSO-1 (C06),2010-036A,2026-06-26T21:36:35.093088,1.00269877,.0059014,54.3050,162.8716,225.3100,318.5305,0,U,36828,999,5819,0,-.57E-6,0
BEIDOU-2 G4 (C04),2010-057A,2026-06-28T16:12:32.961600,1.00271554,.00047845,3.6750,68.8850,191.2188,59.7825,0,U,37210,999,5740,0,-.104E-5,0
BEIDOU-2 IGSO-2 (C07),2010-068A,2026-06-28T15:48:45.338976,1.00280142,.00563826,47.5265,271.6882,213.7241,136.7100,0,U,37256,999,5690,0,-.195E-5,0
BEIDOU-2 IGSO-3 (C08),2011-013A,2026-06-25T13:06:53.019936,1.00266124,.00350576,62.4191,40.0714,184.1159,353.6243,0,U,37384,999,5574,0,-.187E-5,0
GSAT-8 (GAGAN/PRN 127),2011-022A,2026-06-28T12:43:17.550336,1.00273710,.00016339,2.1595,81.6969,181.7322,259.0991,0,U,37605,999,5333,0,.94E-6,0
BEIDOU-2 IGSO-4 (C09),2011-038A,2026-06-27T22:33:21.643776,1.00283688,.01596832,54.6032,165.5768,231.4655,311.1625,0,U,37763,999,5475,0,.2E-6,0
GSAT0101 (GALILEO-PFM),2011-060A,2026-06-26T05:36:36.819936,1.70475865,.0002838,56.9911,341.5158,55.8370,304.1849,0,U,37846,999,9127,0,-.96E-6,0
GSAT0102 (GALILEO-FM2),2011-060B,2026-06-25T14:01:40.769760,1.70476098,.00028311,56.9921,341.5338,14.5912,352.5946,0,U,37847,999,9127,0,-.97E-6,0
COSMOS 2476 (744),2011-064A,2026-06-28T08:49:08.907744,2.13103789,.00224995,65.2764,72.4937,238.4020,223.3998,0,U,37867,999,11400,0,-.4E-6,0
COSMOS 2477 (745),2011-064B,2026-06-27T07:01:57.780768,2.13102995,.00194,65.2822,72.6094,238.8969,298.9395,0,U,37868,999,11397,0,-.51E-6,0
COSMOS 2475 (743),2011-064C,2026-06-28T07:44:05.460288,2.13101901,.00252201,65.2895,72.5964,252.3811,310.1425,0,U,37869,999,11400,0,-.4E-6,0
