NAVSTAR 48 (USA 151)    
1 26407U 00040A   26179.27132633  .00000079  00000+0  00000+0 0  9999
2 26407  54.8502 214.7219 0120881 302.5644  64.3517  2.00557860190172
NAVSTAR 51 (USA 166)    
1 27663U 03005A   26179.61106866  .00000078  00000+0  00000+0 0  9994
2 27663  54.8808 214.5148 0148047  53.1107 335.2091  2.00560056171540
NAVSTAR 54 (USA 177)    
1 28190U 04009A   26179.36518501 -.00000034  00000+0  00000+0 0  9993
2 28190  54.8202 275.2354 0116546 173.5786 190.0980  2.00554511163179
NAVSTAR 56 (USA 180)    
1 28474U 04045A   26178.52985552 -.00000102  00000+0  00000+0 0  9995
2 28474  55.1297 324.4797 0169925 316.6549 228.8680  2.00556517158636
NAVSTAR 57 (USA 183)    
1 28874U 05038A   26179.28857267 -.00000029  00000+0  00000+0 0  9995
2 28874  54.8689 272.7293 0128025 296.2501  41.1852  2.00565060152054
INMARSAT 4-F2           
1 28899U 05044A   26178.97727350 -.00000253  00000+0  00000+0 0  9992
2 28899   5.1083  43.6802 0003504  44.6908 323.0231  1.00274774 75638
NAVSTAR 58 (USA 190)    
1 29486U 06042A   26179.61579781  .00000029  00000+0  00000+0 0  9999
2 29486  54.7120 150.8852 0106837  54.7247  57.6465  2.00569276144620
NAVSTAR 59 (USA 192)    
1 29601U 06052A   26178.88883327  .00000081  00000+0  00000+0 0  9999
2 29601  54.9335 213.5820 0084826  90.7543 270.2993  2.00558714143626
NAVSTAR 60 (USA 196)    
1 32260U 07047A   26178.19682157 -.00000070  00000+0  00000+0 0  9990
2 32260  54.1023  79.6530 0167143  87.5980 274.3314  2.00554886137013
COSMOS 2433 [GLONASS-M] 
1 32275U 07052A   26177.30077292 -.00000084  00000+0  00000+0 0  9997
2 32275  65.5713 315.6262 0002876 196.1254 163.8539  2.13104185145251
COSMOS 2432 [GLONASS-M] 
1 32276U 07052B   26178.97701435 -.00000078  00000+0  00000+0 0  9998
2 32276  65.5863 315.6977 0007480 328.0830 181.6997  2.13103239145315
NAVSTAR 61 (USA 199)    
1 32384U 07062A   26179.59300154 -.00000028  00000+0  00000+0 0  9996
2 32384  55.0224 273.6939 0035873 166.4039 249.2259  2.00560879135744
COSMOS 2434 [GLONASS-M] 
1 32393U 07065A   26178.19052823  .00000101  00000+0  00000+0 0  9992
2 32393  64.3185 191.5785 0001243 326.9302 245.4349  2.13101370143984
COSMOS 2436 [GLONASS-M] 
1 32395U 07065C   26178.84001979  .00000096  00000+0  00000+0 0  9995
2 32395  64.3274 191.6289 0017282 353.5963 129.3057  2.13100206143954
NAVSTAR 62 (USA 201)    
1 32711U 08012A   26179.10433391  .00000028  00000+0  00000+0 0  9992
2 32711  54.4987 149.4887 0211442 247.9696 109.7406  2.00572774133975
NAVSTAR 64 (USA 206)    
1 35752U 09043A   26179.33960022 -.00000075  00000+0  00000+0 0  9999
2 35752  56.2173  27.0139 0053812  83.6857  95.1411  2.00553874123580
COSMOS 2456 [GLONASS-M] 
1 36111U 09070A   26176.78374925 -.00000065  00000+0  00000+0 0  9995
2 36111  65.0164  70.6784 0004249 334.9853  36.3390  2.13103651128616
COSMOS 2457 [GLONASS-M] 
1 36112U 09070B   26178.63741042 -.00000048  00000+0  00000+0 0  9991
2 36112  65.0032  70.4590 0003232 122.1051 358.6068  2.13101175128657
COSMOS 2460 [GLONASS-M] 
1 36402U 10007C   26178.22930437 -.00000082  00000+0  00000+0 0  9996
2 36402  65.4142 314.1261 0002031 121.7117  47.8769  2.13101740126945
NAVSTAR 65 (USA 213)    
1 36585U 10022A   26179.59749691  .00000080  00000+0  00000+0 0  9993
2 36585  54.2696 208.1023 0126452  66.1262  58.0234  2.00563064117827
BEIDOU-2 IGSO-1         
1 36828U 10036A   26177.90040617 -.00000057  00000+0  00000+0 0  9998
2 36828  54.3050 162.8716 0059014 225.3100 318.5305  1.00269877 58197
BEIDOU-2 G4             
1 37210U 10057A   26179.67538150 -.00000104  00000+0  00000+0 0  9990
2 37210   3.6750  68.8850 0004784 191.2188  59.7825  1.00271554 57401
BEIDOU-2 IGSO-2         
1 37256U 10068A   26179.65885809 -.00000195  00000+0  00000+0 0  9996
2 37256  47.5265 271.6882 0056382 213.7241 136.7100  1.00280142 56908
BEIDOU-2 IGSO-3         
1 37384U 11013A   26176.54644699 -.00000187  00000+0  00000+0 0  9995
2 37384  62.4191  40.0714 0035057 184.1159 353.6243  1.00266124 55744
GSAT-8                  
1 37605U 11022A   26179.53006424  .00000094  00000+0  00000+0 0  9997
2 37605   2.1595  81.6969 0001633 181.7322 259.0991  1.00273710 53331
BEIDOU-2 IGSO-4         
1 37763U 11038A   26178.93983384  .00000020  00000+0  00000+0 0  9990
2 37763  54.6032 165.5768 0159683 231.4655 311.1625  1.00283688 54750
GSAT0101 (GALILEO-PFM)  
1 37846U 11060A   26177.23375949 -.00000096  00000+0  00000+0 0  9995
2 37846  56.9911 341.5158 0002838  55.8370 304.1849  1.70475865 91278
GSAT0102 (GALILEO-FM2)  
1 37847U 11060B   26176.58449965 -.00000097  00000+0  00000+0 0  9994
2 37847  56.9921 341.5338 0002831  14.5912 352.5946  1.70476098 91271
COSMOS 2476 [GLONASS-M] 
1 37867U 11064A   26179.36746421 -.00000040  00000+0  00000+0 0  9994
2 37867  65.2764  72.4937 0022499 238.4020 223.3998  2.13103789114006
COSMOS 2477 [GLONASS-M] 
1 37868U 11064B   26178.29302987 -.00000051  00000+0  00000+0 0  9993
2 37868  65.2822  72.6094 0019400 238.8969 298.9395  2.13102995113974
COSMOS 2475 [GLONASS-M] 
1 37869U 11064C   26179.32228542 -.00000040  00000+0  00000+0 0  9991
2 37869  65.2895  72.5964 0025220 252.3811 310.1425  2.13101901114006
